{
    "links": {
        "self": "http://www.neowsapp.com/rest/v1/neo/3401388?api_key=iIulBulltgU6a56xZRHN4H3l9WmuAYTsLGpBGhQ2"
    },
    "id": "3401388",
    "neo_reference_id": "3401388",
    "name": "(2008 CO)",
    "designation": "2008 CO",
    "nasa_jpl_url": "http://ssd.jpl.nasa.gov/sbdb.cgi?sstr=3401388",
    "absolute_magnitude_h": 22.8,
    "estimated_diameter": {
        "kilometers": {
            "estimated_diameter_min": 0.0732073989,
            "estimated_diameter_max": 0.1636967205
        },
        "meters": {
            "estimated_diameter_min": 73.2073989347,
            "estimated_diameter_max": 163.696720474
        },
        "miles": {
            "estimated_diameter_min": 0.0454889547,
            "estimated_diameter_max": 0.1017163949
        },
        "feet": {
            "estimated_diameter_min": 240.181762721,
            "estimated_diameter_max": 537.0627483999
        }
    },
    "is_potentially_hazardous_asteroid": false,
    "close_approach_data": [
        {
            "close_approach_date": "2003-06-26",
            "close_approach_date_full": "2003-Jun-26 00:54",
            "epoch_date_close_approach": 1056588840000,
            "relative_velocity": {
                "kilometers_per_second": "3.5957512295",
                "kilometers_per_hour": "12944.7044260984",
                "miles_per_hour": "8043.3359252054"
            },
            "miss_distance": {
                "astronomical": "0.2103653643",
                "lunar": "81.8321267127",
                "kilometers": "31470210.421054041",
                "miles": "19554681.9929901258"
            },
            "orbiting_body": "Earth"
        },
        {
            "close_approach_date": "2008-02-05",
            "close_approach_date_full": "2008-Feb-05 08:20",
            "epoch_date_close_approach": 1202199600000,
            "relative_velocity": {
                "kilometers_per_second": "4.9162995319",
                "kilometers_per_hour": "17698.6783146884",
                "miles_per_hour": "10997.2704228129"
            },
            "miss_distance": {
                "astronomical": "0.1919457794",
                "lunar": "74.6669081866",
                "kilometers": "28714679.753729878",
                "miles": "17842474.6324251964"
            },
            "orbiting_body": "Earth"
        },
        {
            "close_approach_date": "2012-09-11",
            "close_approach_date_full": "2012-Sep-11 01:52",
            "epoch_date_close_approach": 1347328320000,
            "relative_velocity": {
                "kilometers_per_second": "4.0958630978",
                "kilometers_per_hour": "14745.1071522135",
                "miles_per_hour": "9162.0361635518"
            },
            "miss_distance": {
                "astronomical": "0.1846540419",
                "lunar": "71.8304222991",
                "kilometers": "27623851.355130753",
                "miles": "17164665.2959722714"
            },
            "orbiting_body": "Earth"
        }
    ],
    "orbital_data": {
        "orbit_id": "15",
        "orbit_determination_date": "2017-04-06 09:04:34",
        "first_observation_date": "2008-02-02",
        "last_observation_date": "2008-03-02",
        "data_arc_in_days": 29,
        "observations_used": 73,
        "orbit_uncertainty": "6",
        "minimum_orbit_intersection": ".160592",
        "jupiter_tisserand_invariant": "5.366",
        "epoch_osculation": "2459000.5",
        "eccentricity": ".01168141054028829",
        "semi_major_axis": "1.176110293096932",
        "inclination": "8.074606428930062",
        "ascending_node_longitude": "319.2286864731497",
        "orbital_period": "465.8761771883645",
        "perihelion_distance": "1.162371665922608",
        "perihelion_argument": "79.69687505025578",
        "aphelion_distance": "1.189848920271256",
        "perihelion_time": "2459037.405798516877",
        "mean_anomaly": "331.4815049220603",
        "mean_motion": ".7727375161628917",
        "equinox": "J2000",
        "orbit_class": {
            "orbit_class_type": "AMO",
            "orbit_class_description": "Near-Earth asteroid orbits similar to that of 1221 Amor",
            "orbit_class_range": "1.017 AU < q (perihelion) < 1.3 AU"
        }
    },
    "is_sentry_object": false
}